IRIDIUM 106             
1 41917U 17003A   24290.22562099  .00000886  00000+0  30917-3 0  9999
2 41917  86.3997 343.0221 0002660  95.2210 264.9289 14.34214093405925
IRIDIUM 103             
1 41918U 17003B   24290.56179565  .00000437  00000+0  14902-3 0  9997
2 41918  86.4000 342.7838 0002274 111.5945 248.5493 14.34211231405993
IRIDIUM 109             
1 41919U 17003C   24290.21929425  .00000651  00000+0  22540-3 0  9993
2 41919  86.4000 342.9760 0001803 101.8684 258.2714 14.34210793405917
IRIDIUM 102             
1 41920U 17003D   24290.18757249  .00000856  00000+0  29865-3 0  9998
2 41920  86.3999 342.9261 0002119  88.5380 271.6059 14.34216391405995
IRIDIUM 105             
1 41921U 17003E   24290.50716140  .00000188  00000+0  60175-4 0  9998
2 41921  86.3940 311.2259 0002341  94.9918 265.1545 14.34215587407898
IRIDIUM 104             
1 41922U 17003F   24290.20026400  .00000142  00000+0  43574-4 0  9993
2 41922  86.3998 342.9537 0001661 101.5934 258.5448 14.34210379405989
IRIDIUM 114             
1 41923U 17003G   24290.55545143  .00001550  00000+0  54631-3 0  9991
2 41923  86.3999 342.7910 0002321  97.3274 262.8185 14.34218636406012
IRIDIUM 108             
1 41924U 17003H   24290.51395336  .00000685  00000+0  23752-3 0  9993
2 41924  86.3934 311.1398 0002436  90.1116 270.0359 14.34223969407868
